INTELSAT 23 (IS-23)     
1 38867U 12057A   26193.83758764 -.00000285  00000+0  00000+0 0  9990
2 38867   0.0053  45.4533 0000306 146.8602 346.9385  1.00274192 50214
FM-6                    
1 39360U 13058A   26193.61120086 -.00000014  00000+0  00000+0 0  9997
2 39360   0.0177  43.8724 0001048 136.9706 213.3301  1.00266064 46324
INTELSAT 30 (IS-30)     
1 40271U 14062A   26193.82918095 -.00000152  00000+0  00000+0 0  9997
2 40271   0.0165  46.9734 0001200 336.3929 110.8103  1.00273200  7050
DIRECTV 14              
1 40333U 14078B   26193.61458088 -.00000125  00000+0  00000+0 0  9991
2 40333   0.0133  45.0517 0000287 260.5603 106.8933  1.00269942 42293
DIRECTV 15              
1 40663U 15026A   26193.61388752 -.00000102  00000+0  00000+0 0  9996
2 40663   0.0184  70.9457 0000099 201.8573 135.8290  1.00272075 40714
SKY MEXICO-1            
1 40664U 15026B   26193.83256095 -.00000235  00000+0  00000+0 0  9992
2 40664   0.0169  18.1974 0002315 117.1281  16.3150  1.00270630 40717
INTELSAT 34 (IS-34)     
1 40874U 15039A   26193.83715432 -.00000286  00000+0  00000+0 0  9990
2 40874   0.0106 354.3362 0000482 358.5808 183.6941  1.00271670 39894
INTELSAT 31 (IS-31)     
1 41581U 16035A   26193.82918095 -.00000151  00000+0  00000+0 0  9993
2 41581   0.0178 286.2531 0001167 358.9142 209.0048  1.00271078 36942
INTELSAT 36 (IS-36)     
1 41747U 16053A   26193.86275079 -.00000025  00000+0  00000+0 0  9999
2 41747   0.0101  12.8267 0002520 328.1376 328.8596  1.00270001 36216
INTELSAT 32E (IS-32E)   
1 41945U 17007B   26193.83958100  .00000000  00000+0  00000+0 0  9991
2 41945   0.0255  42.1521 0000448 279.7592 227.8952  1.00269813 34483
INTELSAT 35E (IS-35E)   
1 42818U 17041A   26193.48484672 -.00000237  00000+0  00000+0 0  9991
2 42818   0.0174  42.2312 0001574  68.1142 320.0780  1.00269882 33068
INTELSAT 37E (IS-37E)   
1 42950U 17059A   26193.84454358 -.00000142  00000+0  00000+0 0  9990
2 42950   0.0149  70.6038 0002483  48.3745  97.7834  1.00270462 32328
AZERSPACE 2 (IS-38)     
1 43632U 18074A   26193.78577463  .00000000  00000+0  00000+0 0  9994
2 43632   0.0246  38.9461 0001246  87.7536 131.9735  1.00269539 28703
HORIZONS-3E             
1 43633U 18074B   26193.73900909 -.00000031  00000+0  00000+0 0  9990
2 43633   0.0478 221.1039 0000923  61.2279  83.3374  1.00271137 28593
AT&T T-16               
1 44333U 19034A   26193.61432087 -.00000115  00000+0  00000+0 0  9992
2 44333   0.0149  54.8427 0000745 274.3761  81.5869  1.00272476 25888
INTELSAT 39 (IS-39)     
1 44476U 19049B   26193.84191639  .00000000  00000+0  00000+0 0  9998
2 44476   0.0257  43.0319 0000951 283.7441 328.9973  1.00269749 25382
GALAXY 30 (G-30)        
1 46114U 20056C   26193.75209581  .00000037  00000+0  00000+0 0  9995
2 46114   0.0046  97.9283 0001937  16.7243 321.7326  1.00271051 21542
GALAXY 33 (G-33)        
1 54026U 22128A   26193.75053581  .00000079  00000+0  00000+0 0  9991
2 54026   0.0134  14.6022 0001747 105.3640 307.8614  1.00271284 13996
GALAXY 34 (G-34)        
1 54027U 22128B   26193.60868750  .00000000  00000+0  00000+0 0  9992
2 54027   0.0241  17.5660 0001489 108.3352 254.7261  1.00274956 14169
GALAXY 31 (G-31)        
1 54243U 22153A   26193.75278917  .00000000  00000+0  00000+0 0  9996
2 54243   0.0272  65.0543 0000936  56.5708 319.0141  1.00270052  7387
GALAXY 32 (G-32)        
1 54244U 22153B   26193.47366667 -.00000173  00000+0  00000+0 0  9998
2 54244   0.0126  14.5077 0001429  31.8370 323.5385  1.00269935 13392
GALAXY 35 (G-35)        
1 54741U 22170A   26193.82970095  .00000000  00000+0  00000+0 0  9992
2 54741   0.0231  58.6837 0001872  58.7162  18.9064  1.00268935 13155
GALAXY 36 (G-36)        
1 54742U 22170B   26193.83039428 -.00000186  00000+0  00000+0 0  9996
2 54742   0.0298 108.9509 0002341 351.1655  40.5435  1.00270917 13036
GALAXY 37 (G-37)        
1 57493U 23112A   26193.60912083  .00000049  00000+0  00000+0 0  9998
2 57493   0.0180  69.1837 0001734  47.7877 265.8043  1.00270910 10793
