OBJECT_NAME,OBJECT_ID,EPOCH,MEAN_MOTION,ECCENTRICITY,INCLINATION,RA_OF_ASC_NODE,ARG_OF_PERICENTER,MEAN_ANOMALY,EPHEMERIS_TYPE,CLASSIFICATION_TYPE,NORAD_CAT_ID,ELEMENT_SET_NO,REV_AT_EPOCH,BSTAR,MEAN_MOTION_DOT,MEAN_MOTION_DDOT
INTELSAT 23 (IS-23),2012-057A,2026-07-12T20:06:07.572096,1.00274192,.0000306,0.0053,45.4533,146.8602,346.9385,0,U,38867,999,5021,0,-.285E-5,0
FM-6,2013-058A,2026-07-12T14:40:07.754304,1.00266064,.0001048,0.0177,43.8724,136.9706,213.3301,0,U,39360,999,4632,0,-.14E-6,0
INTELSAT 30 (IS-30),2014-062A,2026-07-12T19:54:01.234080,1.00273200,.00012,0.0165,46.9734,336.3929,110.8103,0,U,40271,999,705,0,-.152E-5,0
DIRECTV 14,2014-078B,2026-07-12T14:44:59.788032,1.00269942,.0000287,0.0133,45.0517,260.5603,106.8933,0,U,40333,999,4229,0,-.125E-5,0
DIRECTV 15,2015-026A,2026-07-12T14:43:59.881728,1.00272075,.0000099,0.0184,70.9457,201.8573,135.8290,0,U,40663,999,4071,0,-.102E-5,0
SKY MEXICO-1,2015-026B,2026-07-12T19:58:53.266080,1.00270630,.0002315,0.0169,18.1974,117.1281,16.3150,0,U,40664,999,4071,0,-.235E-5,0
INTELSAT 34 (IS-34),2015-039A,2026-07-12T20:05:30.133248,1.00271670,.0000482,0.0106,354.3362,358.5808,183.6941,0,U,40874,999,3989,0,-.286E-5,0
INTELSAT 31 (IS-31),2016-035A,2026-07-12T19:54:01.234080,1.00271078,.0001167,0.0178,286.2531,358.9142,209.0048,0,U,41581,999,3694,0,-.151E-5,0
INTELSAT 36 (IS-36),2016-053A,2026-07-12T20:42:21.668256,1.00270001,.000252,0.0101,12.8267,328.1376,328.8596,0,U,41747,999,3621,0,-.25E-6,0
INTELSAT 32E (IS-32E),2017-007B,2026-07-12T20:08:59.798400,1.00269813,.0000448,0.0255,42.1521,279.7592,227.8952,0,U,41945,999,3448,0,0,0
INTELSAT 35E (IS-35E),2017-041A,2026-07-12T11:38:10.756608,1.00269882,.00015743,0.0174,42.2312,68.1142,320.0780,0,U,42818,999,3306,0,-.237E-5,0
INTELSAT 37E (IS-37E),2017-059A,2026-07-12T20:16:08.565312,1.00270462,.0002483,0.0149,70.6038,48.3745,97.7834,0,U,42950,999,3232,0,-.142E-5,0
AZERSPACE 2 (IS-38),2018-074A,2026-07-12T18:51:30.928032,1.00269539,.0001246,0.0246,38.9461,87.7536,131.9735,0,U,43632,999,2870,0,0,0
HORIZONS-3E,2018-074B,2026-07-12T17:44:10.385376,1.00271137,.0000923,0.0478,221.1039,61.2279,83.3374,0,U,43633,999,2859,0,-.31E-6,0
AT&T T-16,2019-034A,2026-07-12T14:44:37.323168,1.00272476,.0000745,0.0149,54.8427,274.3761,81.5869,0,U,44333,999,2588,0,-.115E-5,0
INTELSAT 39 (IS-39),2019-049B,2026-07-12T20:12:21.576096,1.00269749,.0000951,0.0257,43.0319,283.7441,328.9973,0,U,44476,999,2538,0,0,0
GALAXY 30 (G-30),2020-056C,2026-07-12T18:03:01.077984,1.00271051,.0001937,0.0046,97.9283,16.7243,321.7326,0,U,46114,999,2154,0,.37E-6,0
GALAXY 33 (G-33),2022-128A,2026-07-12T18:00:46.293984,1.00271284,.0001747,0.0134,14.6022,105.3640,307.8614,0,U,54026,999,1399,0,.79E-6,0
GALAXY 34 (G-34),2022-128B,2026-07-12T14:36:30.600000,1.00274956,.0001489,0.0241,17.5660,108.3352,254.7261,0,U,54027,999,1416,0,0,0
GALAXY 31 (G-31),2022-153A,2026-07-12T18:04:00.984288,1.00270052,.0000936,0.0272,65.0543,56.5708,319.0141,0,U,54243,999,738,0,0,0
GALAXY 32 (G-32),2022-153B,2026-07-12T11:22:04.800288,1.00269935,.0001429,0.0126,14.5077,31.8370,323.5385,0,U,54244,999,1339,0,-.173E-5,0
GALAXY 35 (G-35),2022-170A,2026-07-12T19:54:46.162080,1.00268935,.0001872,0.0231,58.6837,58.7162,18.9064,0,U,54741,999,1315,0,0,0
GALAXY 36 (G-36),2022-170B,2026-07-12T19:55:46.065792,1.00270917,.0002341,0.0298,108.9509,351.1655,40.5435,0,U,54742,999,1303,0,-.186E-5,0
GALAXY 37 (G-37),2023-112A,2026-07-12T14:37:08.039712,1.00270910,.0001734,0.0180,69.1837,47.7877,265.8043,0,U,57493,999,1079,0,.49E-6,0
